O3B MPOWER F1           
1 54755U 22174A   23244.80614964 -.00000023  00000+0  00000+0 0  9999
2 54755   0.0438  15.3729 0004654 159.4076  14.5046  5.00118437 14364
